BEIDOU 3 (C01)          
1 36287U 10001A   22302.63074742 -.00000274  00000+0  00000+0 0  9992
2 36287   1.7546  48.8090 0001210 263.4650  93.2310  1.00274211 46859
BEIDOU 5 (C06)          
1 36828U 10036A   22302.59074243 -.00000087  00000+0  00000+0 0  9994
2 36828  54.1972 175.0044 0030239 184.7708 357.6435  1.00259957 44920
BEIDOU 6 (C04)          
1 37210U 10057A   22302.85743741 -.00000108  00000+0  00000+0 0  9992
2 37210   0.7905  42.7958 0007211 156.9199 307.1718  1.00272120 43988
BEIDOU 7 (C07)          
1 37256U 10068A   22302.78206845 -.00000191  00000+0  00000+0 0  9997
2 37256  49.9751 288.0367 0023221 206.9995 292.1825  1.00264618 43491
BEIDOU 8 (C08)          
1 37384U 11013A   22302.81913796 -.00000189  00000+0  00000+0 0  9991
2 37384  60.4887  52.9344 0024627 180.5385 207.8582  1.00272217 42378
BEIDOU 9 (C09)          
1 37763U 11038A   22302.75031041 -.00000031  00000+0  00000+0 0  9992
2 37763  54.4774 177.5095 0098386 227.1743 355.5675  1.00254126 41342
BEIDOU 10 (C10)         
1 37948U 11073A   22302.86616200 -.00000142  00000+0  00000+0 0  9997
2 37948  50.0898 287.6808 0086617 220.4451 296.9853  1.00263615 40109
BEIDOU 11 (C05)         
1 38091U 12008A   22302.97063443  .00000061  00000+0  00000+0 0  9992
2 38091   1.8661  70.2858 0008903 331.6716  44.5270  1.00268113 39187
BEIDOU 12 (C11)         
1 38250U 12018A   22302.64589689 -.00000072  00000+0  00000+0 0  9992
2 38250  56.6499 349.1280 0024329 252.0936 288.7289  1.86234436 71585
BEIDOU 13 (C12)         
1 38251U 12018B   22302.33311228 -.00000070  00000+0  00000+0 0  9999
2 38251  56.5658 348.4533 0015242 252.8574 122.3922  1.86234222 71585
BEIDOU 15 (C14)         
1 38775U 12050B   22302.47722013  .00000054  00000+0  00000+0 0  9990
2 38775  55.4806 107.1750 0011034 333.7174 333.8995  1.86231357 68952
BEIDOU 16 (C02)         
1 38953U 12059A   22302.84563366 -.00000170  00000+0  00000+0 0  9992
2 38953   1.2527  81.4895 0022722 291.8852  53.1561  1.00271070 36741
BEIDOU 17 (C31)         
1 40549U 15019A   22302.37991008 -.00000161  00000+0  00000+0 0  9991
2 40549  51.6551 311.1960 0038404 199.6412 119.0452  1.00268223 27778
BEIDOU 18 (C57)         
1 40748U 15037A   22301.34044112 -.00000067  00000+0  00000+0 0  9998
2 40748  55.8149 347.2715 0001314 333.8466   5.1408  1.86233453 49385
BEIDOU 19 (C58)         
1 40749U 15037B   22302.97696685 -.00000072  00000+0  00000+0 0  9993
2 40749  55.8182 347.2072 0004498 293.2997 197.0457  1.86233080 49418
BEIDOU 20 (C18)         
1 40938U 15053A   22302.82663969 -.00000127  00000+0  00000+0 0  9995
2 40938  51.2971 274.3253 0045230 200.5666 316.2462  1.00261727 26059
BEIDOU IGSO-6 (C13)     
1 41434U 16021A   22302.85055552 -.00000148  00000+0  00000+0 0  9992
2 41434  58.2982  51.4480 0046443 216.1090 169.6078  1.00257678 24182
BEIDOU-2 G7 (C03)       
1 41586U 16037A   22302.83200396 -.00000350  00000+0  00000+0 0  9998
2 41586   1.6729  68.7777 0008034 353.5277  25.9275  1.00273440 23499
BEIDOU-3 M1 (C19)       
1 43001U 17069A   22302.84221466  .00000055  00000+0  00000+0 0  9991
2 43001  55.6336 107.1810 0007224 292.7290  55.9856  1.86231677 33894
BEIDOU-3 M2 (C20)       
1 43002U 17069B   22301.45188317  .00000054  00000+0  00000+0 0  9994
2 43002  55.6322 107.2635 0005574 326.4115 212.9897  1.86231325 33860
BEIDOU-3 M3 (C27)       
1 43107U 18003A   22302.54979825 -.00000073  00000+0  00000+0 0  9994
2 43107  55.2676 348.0885 0003297  65.3396 296.4976  1.86232554 32652
BEIDOU-3 M4 (C28)       
1 43108U 18003B   22302.60587693 -.00000073  00000+0  00000+0 0  9990
2 43108  55.2609 348.0752 0004219 245.0483 197.5181  1.86230980 32651
BEIDOU-3 M5 (C21)       
1 43207U 18018A   22301.85297460  .00000054  00000+0  00000+0 0  9990
2 43207  55.5922 107.3236 0004078   9.5083 350.5098  1.86231550 32020
BEIDOU-3 M6 (C22)       
1 43208U 18018B   22300.84576457  .00000055  00000+0  00000+0 0  9996
2 43208  55.5900 107.3618 0005196 309.2625  50.7053  1.86231577 32002
BEIDOU-3 M7 (C29)       
1 43245U 18029A   22302.84863249 -.00000072  00000+0  00000+0 0  9999
2 43245  55.1756 345.8377 0001320 233.8655 238.8619  1.86232727 31193
BEIDOU-3 M8 (C30)       
1 43246U 18029B   22302.92973426 -.00000072  00000+0  10000-3 0  9993
2 43246  55.1731 345.8631 0003169 342.7647 230.9860  1.86232990 31186
BEIDOU IGSO-7 (C16)     
1 43539U 18057A   22302.59372569 -.00000096  00000+0  00000+0 0  9994
2 43539  55.0890 174.5456 0051290 226.4115 325.1459  1.00269620 15857
BEIDOU-3 M9 (C23)       
1 43581U 18062A   22301.49122925  .00000026  00000+0  00000+0 0  9996
2 43581  54.2422 227.5325 0004613 290.2581 250.3981  1.86232015 28904
BEIDOU-3 M10 (C24)      
1 43582U 18062B   22302.42824139  .00000019  00000+0  00000+0 0  9999
2 43582  54.2425 227.4893 0005825 358.1980 182.6495  1.86232530 28921
BEIDOU-3 M11 (C25)      
1 43602U 18067A   22302.36057385  .00000020  00000+0  00000+0 0  9993
2 43602  54.3255 226.1190 0007376   8.1216 168.4213  1.86231567 28412
BEIDOU-3 M12 (C26)      
1 43603U 18067B   22302.47084634  .00000019  00000+0  00000+0 0  9991
2 43603  54.3223 226.0816 0004621 355.5719 165.2541  1.86231517 28435
BEIDOU-3 M13 (C32)      
1 43622U 18072A   22302.18452147  .00000053  00000+0  00000+0 0  9992
2 43622  55.5602 106.8628 0003969 284.2450  73.5524  1.86231785 27933
BEIDOU-3 M14 (C33)      
1 43623U 18072B   22302.58902583  .00000054  00000+0  00000+0 0  9992
2 43623  55.5623 106.8416 0002328 336.8451  22.3876  1.86231643 27941
BEIDOU-3 M15 (C34)      
1 43647U 18078A   22302.21147308 -.00000070  00000+0  10000-3 0  9994
2 43647  55.0709 346.0068 0005291 356.5080   5.3181  1.86232866 27451
BEIDOU-3 M16 (C35)      
1 43648U 18078B   22302.35881953 -.00000071  00000+0  00000+0 0  9997
2 43648  55.0669 346.0076 0003025   7.4294   0.7114  1.86232327 27477
BEIDOU-3 G1 (C59)       
1 43683U 18085A   22302.87549353 -.00000274  00000+0  00000+0 0  9991
2 43683   1.0549 146.1782 0004380  55.7135 291.5132  1.00268752 14756
BEIDOU-3 M17 (C36)      
1 43706U 18093A   22302.49709882  .00000019  00000+0  00000+0 0  9995
2 43706  54.3232 227.3942 0009430 283.7011  76.2213  1.86231770 26833
BEIDOU-3 M18 (C37)      
1 43707U 18093B   22302.09351931  .00000022  00000+0  00000+0 0  9994
2 43707  54.3247 227.3979 0008710 306.0998 234.5919  1.86232369 26818
BEIDOU-3 IGSO-1 (C38)   
1 44204U 19023A   22302.89757867 -.00000220  00000+0  00000+0 0  9998
2 44204  56.7612  51.5349 0024129 190.5987 238.6737  1.00269198 13069
BEIDOU-2 G8             
1 44231U 19027A   22302.86299169 -.00000242  00000+0  00000+0 0  9999
2 44231   1.1824  79.5892 0006357 123.3048 290.5259  1.00273364 12779
BEIDOU-3 IGSO-2 (C39)   
1 44337U 19035A   22302.54621043 -.00000094  00000+0  00000+0 0  9995
2 44337  55.1262 170.5318 0025544 189.5188 353.5903  1.00263316 12394
BEIDOU-3 M23 (C45)      
1 44542U 19061A   22302.43346431  .00000020  00000+0  00000+0 0  9993
2 44542  54.5499 227.5647 0008931 342.9766  17.0203  1.86231405 21082
BEIDOU-3 M24 (C46)      
1 44543U 19061B   22302.83590749  .00000015  00000+0  00000+0 0  9995
2 44543  54.5498 227.5194 0006230 327.6755 213.6258  1.86231996 21086
BEIDOU-3 IGSO-3         
1 44709U 19073A   22302.36820084 -.00000172  00000+0  10000-3 0  9998
2 44709  57.0471 294.9908 0027088 183.5628 171.5283  1.00268508 11132
BEIDOU-3 M21            
1 44793U 19078A   22301.74361054 -.00000069  00000+0  10000-3 0  9999
2 44793  54.9197 346.0281 0004885   8.1300 353.7060  1.86232369 19931
BEIDOU-3 M22            
1 44794U 19078B   22302.41866113 -.00000071  00000+0  00000+0 0  9999
2 44794  54.8935 345.9932 0003066 356.6619   9.6572  1.86232830 19945
BEIDOU-3 M19            
1 44864U 19090A   22301.31077218  .00000053  00000+0  00000+0 0  9998
2 44864  55.4945 107.0958 0014889 268.2438 269.6352  1.86231891 19500
BEIDOU-3 M20            
1 44865U 19090B   22302.52873576  .00000054  00000+0  00000+0 0  9995
2 44865  55.4973 107.0870 0012860 283.8283  80.4829  1.86231833 19507
BEIDOU-3 G2             
1 45344U 20017A   22302.79661845 -.00000139  00000+0  00000+0 0  9997
2 45344   2.0068 359.0414 0003184 174.4103 231.4921  1.00272326  9969
BEIDOU-3 G3             
1 45807U 20040A   22302.88223880 -.00000351  00000+0  00000+0 0  9996
2 45807   1.1489 308.2483 0008508 339.4718 178.6287  1.00274382  8771
